{
  "type": "FeatureCollection",
  "features": [
    {
      "type": "Feature",
      "properties": {
        "norad_id": 26766,
        "name": "INTELSAT 10 (IS-10)",
        "group": "intelsat",
        "lat": 3.021779124047107,
        "lon": 81.43472402044651,
        "alt_km": 36154.89456718791,
        "timestamp": "2025-12-08T13:49:31.460726+00:00",
        "meta_object_name": "INTELSAT 10 (IS-10)",
        "meta_object_id": "2001-019A",
        "meta_epoch": "2025-12-07T12:34:38.803008",
        "meta_mean_motion": 0.99078913,
        "meta_eccentricity": 0.00078602,
        "meta_inclination": 8.6172,
        "meta_ra_of_asc_node": 61.2081,
        "meta_arg_of_pericenter": 221.0792,
        "meta_mean_anomaly": 144.0907,
        "meta_ephemeris_type": 0,
        "meta_classification_type": "U",
        "meta_norad_cat_id": 26766,
        "meta_element_set_no": 999,
        "meta_rev_at_epoch": 4368,
        "meta_bstar": 0,
        "meta_mean_motion_dot": -2.59e-06,
        "meta_mean_motion_ddot": 0,
        "tle_line1": "1 26766U 01019A   25341.52406022 -.00000259  00000+0  00000+0 0  9999",
        "tle_line2": "2 26766   8.6172  61.2081 0007860 221.0792 144.0907  0.99078913 43687"
      },
      "geometry": {
        "type": "Point",
        "coordinates": [
          81.43472402044651,
          3.021779124047107
        ]
      }
    },
    {
      "type": "Feature",
      "properties": {
        "norad_id": 26900,
        "name": "INTELSAT 902 (IS-902)",
        "group": "intelsat",
        "lat": 1.844385042998983,
        "lon": -125.13747361950995,
        "alt_km": 35769.35114335816,
        "timestamp": "2025-12-08T13:49:31.460750+00:00",
        "meta_object_name": "INTELSAT 902 (IS-902)",
        "meta_object_id": "2001-039A",
        "meta_epoch": "2025-12-01T16:59:59.311968",
        "meta_mean_motion": 1.00270327,
        "meta_eccentricity": 0.00043097,
        "meta_inclination": 5.6187,
        "meta_ra_of_asc_node": 74.2002,
        "meta_arg_of_pericenter": 175.119,
        "meta_mean_anomaly": 26.3816,
        "meta_ephemeris_type": 0,
        "meta_classification_type": "U",
        "meta_norad_cat_id": 26900,
        "meta_element_set_no": 999,
        "meta_rev_at_epoch": 8871,
        "meta_bstar": 0,
        "meta_mean_motion_dot": -2.63e-06,
        "meta_mean_motion_ddot": 0,
        "tle_line1": "1 26900U 01039A   25335.70832537 -.00000263  00000+0  00000+0 0  9993",
        "tle_line2": "2 26900   5.6187  74.2002 0004309 175.1190  26.3816  1.00270327 88713"
      },
      "geometry": {
        "type": "Point",
        "coordinates": [
          -125.13747361950995,
          1.844385042998983
        ]
      }
    },
    {
      "type": "Feature",
      "properties": {
        "norad_id": 27380,
        "name": "INTELSAT 904 (IS-904)",
        "group": "intelsat",
        "lat": -0.23852666456942287,
        "lon": -106.59710957040443,
        "alt_km": 35780.91347012342,
        "timestamp": "2025-12-08T13:49:31.460766+00:00",
        "meta_object_name": "INTELSAT 904 (IS-904)",
        "meta_object_id": "2002-007A",
        "meta_epoch": "2025-12-08T03:10:49.968192",
        "meta_mean_motion": 1.00268453,
        "meta_eccentricity": 0.00017836,
        "meta_inclination": 6.4434,
        "meta_ra_of_asc_node": 71.4841,
        "meta_arg_of_pericenter": 217.0339,
        "meta_mean_anomaly": 164.8002,
        "meta_ephemeris_type": 0,
        "meta_classification_type": "U",
        "meta_norad_cat_id": 27380,
        "meta_element_set_no": 999,
        "meta_rev_at_epoch": 4985,
        "meta_bstar": 0,
        "meta_mean_motion_dot": -2.26e-06,
        "meta_mean_motion_ddot": 0,
        "tle_line1": "1 27380U 02007A   25342.13252278 -.00000226  00000+0  00000+0 0  9994",
        "tle_line2": "2 27380   6.4434  71.4841 0001783 217.0339 164.8002  1.00268453 49858"
      },
      "geometry": {
        "type": "Point",
        "coordinates": [
          -106.59710957040443,
          -0.23852666456942287
        ]
      }
    },
    {
      "type": "Feature",
      "properties": {
        "norad_id": 27426,
        "name": "DIRECTV 5 (TEMPO 1)",
        "group": "intelsat",
        "lat": 4.356414991234005,
        "lon": 174.82214005508624,
        "alt_km": 35788.733830957506,
        "timestamp": "2025-12-08T13:49:31.460779+00:00",
        "meta_object_name": "DIRECTV 5 (TEMPO 1)",
        "meta_object_id": "2002-023A",
        "meta_epoch": "2025-12-08T06:02:11.611392",
        "meta_mean_motion": 1.00271804,
        "meta_eccentricity": 0.00039214,
        "meta_inclination": 4.3907,
        "meta_ra_of_asc_node": 77.7036,
        "meta_arg_of_pericenter": 198.4634,
        "meta_mean_anomaly": 141.524,
        "meta_ephemeris_type": 0,
        "meta_classification_type": "U",
        "meta_norad_cat_id": 27426,
        "meta_element_set_no": 999,
        "meta_rev_at_epoch": 8620,
        "meta_bstar": 0,
        "meta_mean_motion_dot": -5.6e-07,
        "meta_mean_motion_ddot": 0,
        "tle_line1": "1 27426U 02023A   25342.25152328 -.00000056  00000+0  00000+0 0  9992",
        "tle_line2": "2 27426   4.3907  77.7036 0003921 198.4634 141.5240  1.00271804 86202"
      },
      "geometry": {
        "type": "Point",
        "coordinates": [
          174.82214005508624,
          4.356414991234005
        ]
      }
    },
    {
      "type": "Feature",
      "properties": {
        "norad_id": 27438,
        "name": "INTELSAT 905 (IS-905)",
        "group": "intelsat",
        "lat": 6.088151165400849,
        "lon": 147.64289149747052,
        "alt_km": 35790.48701200357,
        "timestamp": "2025-12-08T13:49:31.460791+00:00",
        "meta_object_name": "INTELSAT 905 (IS-905)",
        "meta_object_id": "2002-027A",
        "meta_epoch": "2025-12-08T05:41:13.241184",
        "meta_mean_motion": 1.00271095,
        "meta_eccentricity": 0.00029115,
        "meta_inclination": 6.2743,
        "meta_ra_of_asc_node": 72.1062,
        "meta_arg_of_pericenter": 189.7236,
        "meta_mean_anomaly": 123.5142,
        "meta_ephemeris_type": 0,
        "meta_classification_type": "U",
        "meta_norad_cat_id": 27438,
        "meta_element_set_no": 999,
        "meta_rev_at_epoch": 4944,
        "meta_bstar": 0,
        "meta_mean_motion_dot": 9.4e-07,
        "meta_mean_motion_ddot": 0,
        "tle_line1": "1 27438U 02027A   25342.23695881  .00000094  00000+0  00000+0 0  9994",
        "tle_line2": "2 27438   6.2743  72.1062 0002911 189.7236 123.5142  1.00271095 49449"
      },
      "geometry": {
        "type": "Point",
        "coordinates": [
          147.64289149747052,
          6.088151165400849
        ]
      }
    },
    {
      "type": "Feature",
      "properties": {
        "norad_id": 27445,
        "name": "GALAXY 3C (G-3C)",
        "group": "intelsat",
        "lat": 3.0576918041834573,
        "lon": -169.86916782785732,
        "alt_km": 35781.282653956776,
        "timestamp": "2025-12-08T13:49:31.460803+00:00",
        "meta_object_name": "GALAXY 3C (G-3C)",
        "meta_object_id": "2002-030A",
        "meta_epoch": "2025-12-08T06:04:13.145952",
        "meta_mean_motion": 1.00270824,
        "meta_eccentricity": 0.00011309,
        "meta_inclination": 3.253,
        "meta_ra_of_asc_node": 80.55,
        "meta_arg_of_pericenter": 100.4843,
        "meta_mean_anomaly": 252.4211,
        "meta_ephemeris_type": 0,
        "meta_classification_type": "U",
        "meta_norad_cat_id": 27445,
        "meta_element_set_no": 999,
        "meta_rev_at_epoch": 4457,
        "meta_bstar": 0,
        "meta_mean_motion_dot": -1.51e-06,
        "meta_mean_motion_ddot": 0,
        "tle_line1": "1 27445U 02030A   25342.25292993 -.00000151  00000+0  00000+0 0  9990",
        "tle_line2": "2 27445   3.2530  80.5500 0001130 100.4843 252.4211  1.00270824 44571"
      },
      "geometry": {
        "type": "Point",
        "coordinates": [
          -169.86916782785732,
          3.0576918041834573
        ]
      }
    },
    {
      "type": "Feature",
      "properties": {
        "norad_id": 27513,
        "name": "INTELSAT 906 (IS-906)",
        "group": "intelsat",
        "lat": -5.307594359465613,
        "lon": -10.812993850062632,
        "alt_km": 35784.64301451272,
        "timestamp": "2025-12-08T13:49:31.460815+00:00",
        "meta_object_name": "INTELSAT 906 (IS-906)",
        "meta_object_id": "2002-041A",
        "meta_epoch": "2025-12-08T05:21:00.002016",
        "meta_mean_motion": 1.00270727,
        "meta_eccentricity": 0.00060743,
        "meta_inclination": 5.3173,
        "meta_ra_of_asc_node": 75.2852,
        "meta_arg_of_pericenter": 189.2744,
        "meta_mean_anomaly": 317.0603,
        "meta_ephemeris_type": 0,
        "meta_classification_type": "U",
        "meta_norad_cat_id": 27513,
        "meta_element_set_no": 999,
        "meta_rev_at_epoch": 8511,
        "meta_bstar": 0,
        "meta_mean_motion_dot": 1.4e-07,
        "meta_mean_motion_ddot": 0,
        "tle_line1": "1 27513U 02041A   25342.22291669  .00000014  00000+0  00000+0 0  9991",
        "tle_line2": "2 27513   5.3173  75.2852 0006074 189.2744 317.0603  1.00270727 85111"
      },
      "geometry": {
        "type": "Point",
        "coordinates": [
          -10.812993850062632,
          -5.307594359465613
        ]
      }
    }
  ]
}